{"fetched_at":"2026-03-29T16:36:15Z","count":15609,"tles":[{"name":"STARLINK-35591","line1":"1 66984U 25288AB  26087.84444256  .00034248  00000+0  12471-2 0  9995","line2":"2 66984  42.9930 275.5592 0004046  62.0136 298.1124 15.27605711 18213","category":"Starlink"}]}